IRIDIUM 64 [+]          
1 25287U 98021C   16300.50175469  .00000008  00000-0 -41971-5 0  9997
2 25287  86.3937 321.6523 0001984  88.5891 271.5532 14.34218098971502
IRIDIUM 65 [+]          
1 25288U 98021D   16300.50810181 -.00000015  00000-0 -12433-4 0  9994
2 25288  86.3936 321.5573 0002224  84.5284 275.6165 14.34222213971529
IRIDIUM 66 [+]          
1 25289U 98021E   16300.17386378  .00000028  00000-0  28680-5 0  9998
2 25289  86.3937 321.6024 0002330  91.1398 311.6474 14.34217887971470
IRIDIUM 67 [+]          
1 25290U 98021F   16300.52078513  .00000032  00000-0  42000-5 0  9995
2 25290  86.3939 321.5903 0002238  91.6239 268.5213 14.34217952971536
IRIDIUM 68 [+]          
1 25291U 98021G   16300.45736183 -.00000020  00000-0 -14205-4 0  9996
2 25291  86.3939 321.7312 0002103  87.0619 273.0817 14.34221785971490
IRIDIUM 69 [-]          
1 25319U 98026A   16300.55038930  .00000173  00000-0  50116-4 0  9996
2 25319  86.4002 344.0266 0001785  36.5111 323.6208 14.38624897969443
IRIDIUM 71 [-]          
1 25320U 98026B   16300.53814759  .00000157  00000-0  44394-4 0  9990
2 25320  86.3979 340.0341 0003703  64.0826 296.0753 14.39039193969862
IRIDIUM 70 [+]          
1 25342U 98032A   16300.57440565  .00000031  00000-0  40153-5 0  9996
2 25342  86.3944 321.9129 0002369  90.0411  23.0769 14.34221512965613
IRIDIUM 72 [+]          
1 25343U 98032B   16300.47003932 -.00000029  00000-0 -17565-4 0  9998
2 25343  86.3937 321.5837 0002176  87.1027 273.0418 14.34222130965608
IRIDIUM 73 [-]          
1 25344U 98032C   16300.52386766  .00000216  00000-0  51522-4 0  9991
2 25344  86.4388 301.6822 0002854  99.1152 261.0375 14.48981269973718
IRIDIUM 74 [S]          
1 25345U 98032D   16300.52932370  .00000014  00000-0 -19766-5 0  9992
2 25345  86.4449 321.9037 0001995  86.6773  25.6727 14.42956821969052
IRIDIUM 75 [+]          
1 25346U 98032E   16300.56796569  .00000031  00000-0  40394-5 0  9994
2 25346  86.3945 321.7872 0002204  91.7531  20.9375 14.34218566966187
IRIDIUM 3 [+]           
1 25431U 98048A   16300.55298866  .00000204  00000-0  65755-4 0  9991
2 25431  86.3986 353.3949 0002353  91.7184  24.0735 14.34222320952129
IRIDIUM 76 [+]          
1 25432U 98048B   16300.57120939  .00000215  00000-0  69855-4 0  9996
2 25432  86.3983 353.1490 0002369  95.9898  15.7025 14.34222722952115
IRIDIUM 82 [+]          
1 25467U 98051A   16300.51884572 -.00000167  00000-0 -66555-4 0  9994
2 25467  86.3905 119.8725 0001745  77.0752 283.0639 14.34214203953120
IRIDIUM 81 [+]          
1 25468U 98051B   16300.51251241 -.00000052  00000-0 -25572-4 0  9993
2 25468  86.3930 119.4866 0001917  88.1561 271.9854 14.34216585949342
IRIDIUM 80 [+]          
1 25469U 98051C   16300.50339938 -.00000043  00000-0 -22442-4 0  9996
2 25469  86.3935 119.7665 0001843  89.6683 321.6523 14.34216828949343
IRIDIUM 77 [+]          
1 25471U 98051E   16300.50987245 -.00000035  00000-0 -19567-4 0  9994
2 25471  86.3926 119.3548 0002027  85.9335 326.0479 14.34216904954542
IRIDIUM 2 [-]           
1 25527U 98066A   16300.35420213  .00002938  00000-0  15181-3 0  9991
2 25527  85.5327 170.2006 0007561 219.6656 140.4031 15.15835159982446
IRIDIUM 86 [+]          
1 25528U 98066B   16300.45847894 -.00000024  00000-0 -15499-4 0  9990
2 25528  86.3932  87.5320 0002093  85.4563 274.6872 14.34214038945863
IRIDIUM 84 [+]          
1 25530U 98066D   16300.49017653 -.00000045  00000-0 -23189-4 0  9997
2 25530  86.3932  87.6798 0002012  91.7079 268.4347 14.34217370943508
IRIDIUM 83 [+]          
1 25531U 98066E   16300.45212773 -.00000033  00000-0 -18927-4 0  9995
2 25531  86.3937  87.8117 0001930  90.9465 269.1952 14.34214296940858
IRIDIUM 20 [+]          
1 25577U 98074A   16300.51151853  .00000214  00000-0  69170-4 0  9997
2 25577  86.3981 353.0985 0002259  93.3952 266.7502 14.34221991934948
IRIDIUM 11 [+]          
1 25578U 98074B   16300.54702588  .00000020  00000-0  25799-7 0  9995
2 25578  86.3980 353.2873 0002137  91.5155  26.3051 14.34222331943911
IRIDIUM 14 [+]          
1 25777U 99032A   16300.52487203 -.00000022  00000-0 -14915-4 0  9992
2 25777  86.3938 321.6384 0002258  83.9533  68.1882 14.34221852921188
IRIDIUM 21 [+]          
1 25778U 99032B   16300.46369993  .00000005  00000-0 -54070-5 0  9998
2 25778  86.3938 321.6861 0002147  90.7130 269.4312 14.34218550914610
IRIDIUM 91 [+]          
1 27372U 02005A   16300.37138824  .00000275  00000-0  91144-4 0  9991
2 27372  86.4017  25.5706 0001989  95.1208 308.9181 14.34226497778112
IRIDIUM 90 [S]          
1 27373U 02005B   16300.49285860  .00000012  00000-0 -24447-5 0  9991
2 27373  86.4447  87.7699 0002159  89.3421 270.8027 14.42946964777654
IRIDIUM 94 [+]          
1 27374U 02005C   16300.56111640  .00000218  00000-0  70925-4 0  9992
2 27374  86.3982 353.4056 0003063  97.6476 354.7705 14.34224781782462
IRIDIUM 95 [+]          
1 27375U 02005D   16300.33110096  .00000267  00000-0  88408-4 0  9991
2 27375  86.4017  25.3688 0002293  97.3619 262.7837 14.34228760777390
IRIDIUM 96 [+]          
1 27376U 02005E   16300.37901113  .00000228  00000-0  74294-4 0  9999
2 27376  86.4008  56.8763 0002633 127.4728 232.6707 14.34220738782607
IRIDIUM 97 [+]          
1 27450U 02031A   16300.41708217  .00000199  00000-0  63885-4 0  9997
2 27450  86.3978  56.6216 0001914  95.9297 264.2117 14.34225041756729
IRIDIUM 98 [+]          
1 27451U 02031B   16300.48570498 -.00000041  00000-0 -21636-4 0  9999
2 27451  86.3927 119.9377 0001815  86.6836 331.5038 14.34216704757807
